OBJECT_NAME,OBJECT_ID,EPOCH,MEAN_MOTION,ECCENTRICITY,INCLINATION,RA_OF_ASC_NODE,ARG_OF_PERICENTER,MEAN_ANOMALY,EPHEMERIS_TYPE,CLASSIFICATION_TYPE,NORAD_CAT_ID,ELEMENT_SET_NO,REV_AT_EPOCH,BSTAR,MEAN_MOTION_DOT,MEAN_MOTION_DDOT
STARLINK-33643,2025-063U,2026-07-15T14:03:25.684416,15.34144786,.0001741,53.1594,178.2010,76.0027,284.1169,0,U,63381,999,7434,.74156E-2,.256829E-2,0
STARLINK-33748,2025-063W,2026-07-15T16:10:41.764800,15.34402239,.0001398,53.1567,187.9805,87.6707,272.4455,0,U,63383,999,7421,.25409E-3,.8219E-4,0
STARLINK-33658,2025-063X,2026-07-15T07:44:34.019808,15.34418753,.00015751,53.1572,175.8518,75.6868,284.4309,0,U,63384,999,7435,.32276602E-3,.10551E-3,0
STARLINK-33616,2025-063Y,2026-07-15T10:04:36.428448,15.34396262,.00013891,53.1579,189.2473,83.0272,277.0889,0,U,63385,999,7412,.15279196E-3,.4789E-4,0
STARLINK-33571,2025-063Z,2026-07-15T16:49:15.119616,15.34400052,.0000954,53.1572,186.0014,108.8263,251.2843,0,U,63386,999,7419,.26758E-3,.8675E-4,0
STARLINK-33533,2025-063AA,2026-07-15T15:27:28.639008,15.34401404,.0001411,53.1594,174.3059,86.8931,273.2233,0,U,63387,999,7435,.19151E-3,.61E-4,0
STARLINK-33629,2025-063AB,2026-07-15T15:18:23.004000,15.34408047,.0001432,53.1590,174.2629,77.7109,282.4054,0,U,63388,999,7440,.14955E-3,.4681E-4,0
STARLINK-33656,2025-063AC,2026-07-15T09:31:54.208416,15.31707565,.00012055,53.1581,178.4509,81.2816,278.8322,0,U,63389,999,7432,.14341032E-3,.4089E-4,0
STARLINK-33531,2025-065A,2026-07-14T22:47:41.860320,15.27594409,.00013503,43.0027,108.3062,269.5266,90.5431,0,U,63399,999,7230,.5353071E-3,.14504E-3,0
STARLINK-33652,2025-065B,2026-07-15T18:34:43.274208,15.27587136,.0001013,42.9958,103.3136,64.7033,295.3924,0,U,63400,999,7243,.42388E-3,.11423E-3,0
STARLINK-33707,2025-065C,2026-07-15T19:06:10.460160,15.27587281,.0001573,43.0015,103.4814,277.3911,82.6762,0,U,63401,999,7243,.38056E-3,.10227E-3,0
STARLINK-33668,2025-065D,2026-07-15T02:16:21.848448,15.27591367,.00010876,42.9992,107.6747,276.5313,83.5415,0,U,63402,999,7232,.33575303E-3,.8992E-4,0
STARLINK-33676,2025-065E,2026-07-15T19:04:19.687584,15.27593295,.0000936,43.0028,103.4659,271.5680,88.5064,0,U,63403,999,7243,.39751E-3,.10697E-3,0
STARLINK-33711,2025-065F,2026-07-15T18:32:51.998784,15.27583517,.0001008,43.0001,103.3043,270.3197,89.7539,0,U,63404,999,7243,.19284E-3,.5049E-4,0
STARLINK-33708,2025-065G,2026-07-15T19:09:53.074944,15.27604236,.0001278,43.0022,103.4909,269.7415,90.3291,0,U,63405,999,7243,.44137E-3,.11912E-3,0
STARLINK-33690,2025-065H,2026-07-15T02:44:36.085056,15.27587978,.00013317,43.0018,103.5010,274.6795,85.3904,0,U,63406,999,7237,.35578908E-3,.9543E-4,0
STARLINK-33694,2025-065J,2026-07-15T03:17:12.466176,15.27585940,.00013806,43.0034,107.1227,261.7665,98.3031,0,U,63407,999,7233,.36963275E-3,.9925E-4,0
STARLINK-33692,2025-065K,2026-07-15T04:19:26.910048,15.27598422,.00010162,42.9998,110.9031,285.0443,75.0297,0,U,63408,999,7229,.66619457E-3,.18125E-3,0
STARLINK-33693,2025-065L,2026-07-15T02:08:56.810688,15.27602498,.00030094,43.0044,107.6237,250.2917,109.7610,0,U,63409,999,7232,.58267142E-3,.15818E-3,0
STARLINK-33677,2025-065M,2026-07-15T19:13:35.268096,15.27604532,.0002607,43.0046,103.5073,275.8943,84.1611,0,U,63410,999,7243,.58664E-3,.15928E-3,0
STARLINK-33647,2025-065N,2026-07-15T20:00:01.999008,15.27583032,.0001233,43.0004,110.8798,261.5255,12.6493,0,U,63411,999,588,-.13934E-3,-.4095E-4,0
STARLINK-33645,2025-065P,2026-07-15T03:20:11.987232,15.27584576,.0000917,43.0029,110.5301,268.1153,91.9593,0,U,63412,999,7229,.36631752E-3,.9833E-4,0
STARLINK-33670,2025-065Q,2026-07-15T03:26:25.701792,15.27571051,.00012505,43.0018,107.1337,246.8970,113.1750,0,U,63413,999,7233,-.78998871E-3,-.21931E-3,0
STARLINK-33644,2025-065R,2026-07-15T04:33:03.492864,15.27590471,.00011718,43.0013,107.4712,255.7298,104.3423,0,U,63414,999,7233,.29277439E-3,.7806E-4,0
STARLINK-33664,2025-065S,2026-07-15T17:44:57.577056,15.27595391,.0000813,43.0029,103.8668,276.7402,83.3357,0,U,63415,999,7242,.38154E-3,.10257E-3,0
STARLINK-33649,2025-065T,2026-07-15T03:19:02.842176,15.27585327,.00010725,43.0032,107.0768,269.0243,91.0486,0,U,63416,999,7233,.25970814E-3,.6892E-4,0
STARLINK-33535,2025-065U,2026-07-15T17:43:06.241152,15.27594572,.0001185,43.0017,103.8289,279.3565,80.7153,0,U,63417,999,7242,.34143E-3,.9149E-4,0
STARLINK-33703,2025-065V,2026-07-15T04:05:18.013632,15.27605401,.00021767,42.9999,107.3208,251.1844,108.8771,0,U,63418,999,7233,.36455475E-3,.9791E-4,0
STARLINK-33709,2025-065W,2026-07-15T20:00:01.999008,15.27599998,.0001394,43.0002,103.6290,261.0031,128.1147,0,U,63419,999,585,-.1182E-4,-.588E-5,0
STARLINK-33698,2025-065X,2026-07-15T18:49:30.411264,15.27592665,.0001806,42.9999,103.3190,288.4471,71.6184,0,U,63420,999,7243,.47697E-3,.12891E-3,0
