STARLINK-33643          
1 63381U 25063U   26196.58571394  .00256829  00000+0  74156-2 0  9999
2 63381  53.1594 178.2010 0001741  76.0027 284.1169 15.34144786 74346
STARLINK-33748          
1 63383U 25063W   26196.67409450  .00008219  00000+0  25409-3 0  9990
2 63383  53.1567 187.9805 0001398  87.6707 272.4455 15.34402239 74212
STARLINK-33658          
1 63384U 25063X   26196.32261597  .00010551  00000+0  32277-3 0  9994
2 63384  53.1572 175.8518 0001575  75.6868 284.4309 15.34418753 74352
STARLINK-33616          
1 63385U 25063Y   26196.41986607  .00004789  00000+0  15279-3 0  9990
2 63385  53.1579 189.2473 0001389  83.0272 277.0889 15.34396262 74120
STARLINK-33571          
1 63386U 25063Z   26196.70086944  .00008675  00000+0  26758-3 0  9990
2 63386  53.1572 186.0014 0000954 108.8263 251.2843 15.34400052 74197
STARLINK-33533          
1 63387U 25063AA  26196.64408147  .00006100  00000+0  19151-3 0  9997
2 63387  53.1594 174.3059 0001411  86.8931 273.2233 15.34401404 74354
STARLINK-33629          
1 63388U 25063AB  26196.63776625  .00004681  00000+0  14955-3 0  9995
2 63388  53.1590 174.2629 0001432  77.7109 282.4054 15.34408047 74401
STARLINK-33656          
1 63389U 25063AC  26196.39715519  .00004089  00000+0  14341-3 0  9995
2 63389  53.1581 178.4509 0001205  81.2816 278.8322 15.31707565 74320
STARLINK-33531          
1 63399U 25065A   26195.94979005  .00014504  00000+0  53531-3 0  9997
2 63399  43.0027 108.3062 0001350 269.5266  90.5431 15.27594409 72303
STARLINK-33652          
1 63400U 25065B   26196.77411197  .00011423  00000+0  42388-3 0  9990
2 63400  42.9958 103.3136 0001013  64.7033 295.3924 15.27587136 72432
STARLINK-33707          
1 63401U 25065C   26196.79595440  .00010227  00000+0  38056-3 0  9995
2 63401  43.0015 103.4814 0001573 277.3911  82.6762 15.27587281 72439
STARLINK-33668          
1 63402U 25065D   26196.09469732  .00008992  00000+0  33575-3 0  9990
2 63402  42.9992 107.6747 0001087 276.5313  83.5415 15.27591367 72323
STARLINK-33676          
1 63403U 25065E   26196.79467231  .00010697  00000+0  39751-3 0  9997
2 63403  43.0028 103.4659 0000936 271.5680  88.5064 15.27593295 72435
STARLINK-33711          
1 63404U 25065F   26196.77282406  .00005049  00000+0  19284-3 0  9999
2 63404  43.0001 103.3043 0001008 270.3197  89.7539 15.27583517 72430
STARLINK-33708          
1 63405U 25065G   26196.79853096  .00011912  00000+0  44137-3 0  9992
2 63405  43.0022 103.4909 0001278 269.7415  90.3291 15.27604236 72435
STARLINK-33690          
1 63406U 25065H   26196.11430654  .00009543  00000+0  35579-3 0  9997
2 63406  43.0018 103.5010 0001331 274.6795  85.3904 15.27587978 72372
STARLINK-33694          
1 63407U 25065J   26196.13694984  .00009925  00000+0  36963-3 0  9990
2 63407  43.0034 107.1227 0001380 261.7665  98.3031 15.27585940 72336
STARLINK-33692          
1 63408U 25065K   26196.18017257  .00018125  00000+0  66619-3 0  9991
2 63408  42.9998 110.9031 0001016 285.0443  75.0297 15.27598422 72298
STARLINK-33693          
1 63409U 25065L   26196.08954642  .00015818  00000+0  58267-3 0  9995
2 63409  43.0044 107.6237 0003009 250.2917 109.7610 15.27602498 72325
STARLINK-33677          
1 63410U 25065M   26196.80110264  .00015928  00000+0  58664-3 0  9994
2 63410  43.0046 103.5073 0002607 275.8943  84.1611 15.27604532 72437
STARLINK-33647          
1 63411U 25065N   26196.83335647 -.00004095  00000+0 -13934-3 0  9998
2 63411  43.0004 110.8798 0001233 261.5255  12.6493 15.27583032  5889
STARLINK-33645          
1 63412U 25065P   26196.13902763  .00009833  00000+0  36632-3 0  9994
2 63412  43.0029 110.5301 0000917 268.1153  91.9593 15.27584576 72296
STARLINK-33670          
1 63413U 25065Q   26196.14335303 -.00021931  00000+0 -78999-3 0  9993
2 63413  43.0018 107.1337 0001250 246.8970 113.1750 15.27571051 72338
STARLINK-33644          
1 63414U 25065R   26196.18962376  .00007806  00000+0  29277-3 0  9992
2 63414  43.0013 107.4712 0001171 255.7298 104.3423 15.27590471 72334
STARLINK-33664          
1 63415U 25065S   26196.73955529  .00010257  00000+0  38154-3 0  9994
2 63415  43.0029 103.8668 0000813 276.7402  83.3357 15.27595391 72422
STARLINK-33649          
1 63416U 25065T   26196.13822734  .00006892  00000+0  25971-3 0  9993
2 63416  43.0032 107.0768 0001072 269.0243  91.0486 15.27585327 72337
STARLINK-33535          
1 63417U 25065U   26196.73826668  .00009149  00000+0  34143-3 0  9999
2 63417  43.0017 103.8289 0001185 279.3565  80.7153 15.27594572 72427
STARLINK-33703          
1 63418U 25065V   26196.17034738  .00009791  00000+0  36455-3 0  9998
2 63418  42.9999 107.3208 0002176 251.1844 108.8771 15.27605401 72336
STARLINK-33709          
1 63419U 25065W   26196.83335647 -.00000588  00000+0 -11820-4 0  9992
2 63419  43.0002 103.6290 0001394 261.0031 128.1147 15.27599998  5851
STARLINK-33698          
1 63420U 25065X   26196.78437976  .00012891  00000+0  47697-3 0  9994
2 63420  42.9999 103.3190 0001806 288.4471  71.6184 15.27592665 72436
